[{"OBJECT_NAME":"ONEWEB-0238","OBJECT_ID":"2021-045T","EPOCH":"2026-03-09T14:27:50.964480","MEAN_MOTION":13.15547356,"ECCENTRICITY":0.000193,"INCLINATION":87.8938,"RA_OF_ASC_NODE":279.0532,"ARG_OF_PERICENTER":79.3293,"MEAN_ANOMALY":280.8055,"EPHEMERIS_TYPE":0,"CLASSIFICATION_TYPE":"U","NORAD_CAT_ID":48784,"ELEMENT_SET_NO":999,"REV_AT_EPOCH":23128,"BSTAR":-7.5189e-5,"MEAN_MOTION_DOT":-1.5e-7,"MEAN_MOTION_DDOT":0},{"OBJECT_NAME":"CZ-4C R\/B","OBJECT_ID":"2009-072C","EPOCH":"2026-03-09T22:46:59.894976","MEAN_MOTION":13.46231136,"ECCENTRICITY":0.01569604,"INCLINATION":100.5126,"RA_OF_ASC_NODE":93.9284,"ARG_OF_PERICENTER":182.9065,"MEAN_ANOMALY":239.8284,"EPHEMERIS_TYPE":0,"CLASSIFICATION_TYPE":"U","NORAD_CAT_ID":36123,"ELEMENT_SET_NO":999,"REV_AT_EPOCH":79755,"BSTAR":0.00011437348,"MEAN_MOTION_DOT":2.5e-7,"MEAN_MOTION_DDOT":0}]
